 TLE: CBERS 4A (Epoch = 2023-03-28T12:59:01.171)</code></pre><p>In this case, the result will always be a <code>Vector{TLE}</code>.</p><div class="admonition is-info"><header class="admonition-header">Note</header><div class="admonition-body"><p>We distinguished the parsing algorithm of one or multiple TLEs to avoid unnecessary allocations in the former.</p></div></div><p><a href="../../lib/library/#SatelliteToolboxTle.@tle_str-Tuple{Any}"><code>@tle_str</code></a> and <a href="../../lib/library/#SatelliteToolboxTle.@tles_str-Tuple{Any}"><code>@tles_str</code></a> will always check the checksum of the two lines. If this verification is not desired, use the versions <a href="../../lib/library/#SatelliteToolboxTle.@tle_nc_str-Tuple{Any}"><code>@tle_nc_str</code></a> and <a href="../../lib/library/#SatelliteToolboxTle.@tles_nc_str-Tuple{Any}"><code>@tles_nc_str</code></a>.</p><p>If the TLE is programmatically added to a string, it can be parsed using the functions <a href="../../lib/library/#SatelliteToolboxTle.read_tle-Tuple{AbstractString, AbstractString}"><code>read_tle</code></a> and <a href="../../lib/library/#SatelliteToolboxTle.read_tles-Tuple{AbstractString}"><code>read_tles</code></a> for one or multiple TLEs, respectively.</p><pre><code class="language-julia-repl hljs" style="display:block;">julia&gt; tle_str = &quot;&quot;&quot;
           AMAZONIA 1
           1 47699U 21015A   23083.68657856 -.00000044  10000-8  43000-4 0  9990
           2 47699  98.4304 162.1097 0001247 136.2017 223.9283 14.40814394108652
           &quot;&quot;&quot;</code><code class="nohighlight hljs ansi" style="display:block;">&quot;AMAZONIA 1\n1 47699U 21015A   23083.68657856 -.00000044  10000-8  43000-4 0  9990\n2 47699  98.4304 162.1097 0001247 136.2017 223.9283 14.40814394108652\n&quot;</code><br/><code class="language-julia-repl hljs" style="display:block;">julia&gt; read_tle(tle_str)</code><code class="nohighlight hljs ansi" style="display:block;">TLE:
<span class="sgr1">                      Name : </span>AMAZONIA 1
<span class="sgr1">          Satellite number : </span>47699
<span class="sgr1">  International designator : </span>21015A
<span class="sgr1">        Epoch (Year / Day) : </span>23 /  83.68657856 (2023-03-24T16:28:40.388)
<span class="sgr1">        Element set number : </span>999
<span class="sgr1">              Eccentricity : </span>  0.00012470
<span class="sgr1">               Inclination : </span> 98.43040000 deg
<span class="sgr1">                      RAAN : </span>162.10970000 deg
<span class="sgr1">       Argument of perigee : </span>136.20170000 deg
<span class="sgr1">              Mean anomaly : </span>223.92830000 deg
<span class="sgr1">           Mean motion (n) : </span> 14.40814394 revs / day
<span class="sgr1">         Revolution number : </span>10865
<span class="sgr1">                        B* : </span>     4.3e-05 1 / er
<span class="sgr1">                     ṅ / 2 : </span>    -4.4e-07 rev / day²
<span class="sgr1">                     n̈ / 6 : </span>       1e-09 rev / day³</code><br/><code class="language-julia-repl hljs" style="display:block;">julia&gt; tles_str = &quot;&quot;&quot;
           AMAZONIA 1
           1 47699U 21015A   23083.68657856 -.00000044  10000-8  43000-4 0  9990
           2 47699  98.4304 162.1097 0001247 136.2017 223.9283 14.40814394108652
           CBERS 4A
           1 44883U 19093E   23087.54098578  .00002943  00000+0  38100-3 0  9997
           2 44883  97.8669 167.4611 0001705  77.3129 282.8275 14.81612352176856
           &quot;&quot;&quot;</code><code class="nohighlight hljs ansi" style="display:block;">&quot;AMAZONIA 1\n1 47699U 21015A   23083.68657856 -.00000044  10000-8  43000-4 0  9990\n2 47699  98.4304 162.1097 0001247 136.2017 223.9283 14.40814394108652\nCBERS 4A\n1 44883U 19093E   23087.54098578  .00002943  00000+0  38100-3 0  9997\n2 44883  97.8669 167.4611 0001705  77.3129 282.8275 14.81612352176856\n&quot;</code><br/><code class="language-julia-repl hljs" style="display:block;">julia&gt; tles = read_tles(tles_str)</code><code class="nohighlight hljs ansi" style="display:block;">2-element Vector{TLE}:
 TLE: AMAZONIA 1 (Epoch = 2023-03-24T16:28:40.388)
 TLE: CBERS 4A (Epoch = 2023-03-28T12:59:01.171)</code></pre><p>If the user does not want checksum verification, pass the keyword <code>verify_checksum = false</code>.</p><h2 id="Parsing-TLEs-from-files"><a class="docs-heading-anchor" href="#Parsing-TLEs-from-files">Parsing TLEs from files</a><a id="Parsing-TLEs-from-files-1"></a><a class="docs-heading-anchor-permalink" href="#Parsing-TLEs-from-files" title="Permalink"></a></h2><p>We can parse TLEs in files using the function <a href="../../lib/library/#SatelliteToolboxTle.read_tles_from_file-Tuple{String}"><code>read_tles_from_file</code></a>:</p><pre><code class="language-julia-repl hljs" style="display:block;">julia&gt; tles = read_tles_from_file(&quot;samples.tle&quot;)</code><code class="nohighlight hljs ansi" style="display:block;">2-element Vector{TLE}:
 TLE: AMAZONIA 1 (Epoch = 2023-03-24T16:28:40.388)
 TLE: CBERS 4A (Epoch = 2023-03-28T12:59:01.171)</code></pre><p>This function will always return a <code>Vector{TLE}</code>.</p></article><nav class="docs-footer"><a class="docs-footer-prevpage" href="../creating_tles/">« Creating TLEs</a><a class="docs-footer-nextpage" href="../fetching_tles/">Fetching TLEs »</a><div class="flexbox-break"></div><p class="footer-message">Powered by <a href="https://github.com/JuliaDocs/Documenter.jl">Documenter.jl</a> and the <a href="https://julialang.org/">Julia Programming Language</a>.</p></nav></div><div class="modal" id="documenter-settings"><div class="modal-background"></div><div class="modal-card"><header class="modal-card-head"><p class="modal-card-title">Settings</p><button class="delete"></button></header><section class="modal-card-body"><p><label class="label">Theme</label><div class="select"><select id="documenter-themepicker"><option value="auto">Automatic (OS)</option><option value="documenter-light">documenter-light</option><option value="documenter-dark">documenter-dark</option></select></div></p><hr/><p>This document was generated with <a href="https://github.com/JuliaDocs/Documenter.jl">Documenter.jl</a> version 1.4.1 on <span class="colophon-date" title="Thursday 23 May 2024 01:09">Thursday 23 May 2024</span>. Using Julia version 1.10.3.</p></section><footer class="modal-card-foot"></footer></div></div></div></body></html>
